[
    {
        "CCSDS_OMM_VERS": "3.0",
        "COMMENT": "GENERATED VIA SPACE-TRACK.ORG API",
        "CREATION_DATE": "2025-05-03T22:36:55",
        "ORIGINATOR": "18 SPCS",
        "OBJECT_NAME": "COSMOS 2527 (GLONASS)",
        "OBJECT_ID": "2018-053A",
        "CENTER_NAME": "EARTH",
        "REF_FRAME": "TEME",
        "TIME_SYSTEM": "UTC",
        "MEAN_ELEMENT_THEORY": "SGP4",
        "EPOCH": "2025-05-03T10:04:27.795360",
        "MEAN_MOTION": "2.13102187",
        "ECCENTRICITY": "0.00088110",
        "INCLINATION": "65.3556",
        "RA_OF_ASC_NODE": "87.5981",
        "ARG_OF_PERICENTER": "246.9053",
        "MEAN_ANOMALY": "112.9794",
        "EPHEMERIS_TYPE": "0",
        "CLASSIFICATION_TYPE": "U",
        "NORAD_CAT_ID": "43508",
        "ELEMENT_SET_NO": "999",
        "REV_AT_EPOCH": "5354",
        "BSTAR": "0.00000000000000",
        "MEAN_MOTION_DOT": "0.00000029",
        "MEAN_MOTION_DDOT": "0.0000000000000",
        "SEMIMAJOR_AXIS": "25508.010",
        "PERIOD": "675.732",
        "APOAPSIS": "19152.350",
        "PERIAPSIS": "19107.399",
        "OBJECT_TYPE": "PAYLOAD",
        "RCS_SIZE": "LARGE",
        "COUNTRY_CODE": "CIS",
        "LAUNCH_DATE": "2018-06-16",
        "SITE": "PKMTR",
        "DECAY_DATE": null,
        "FILE": "4718079",
        "GP_ID": "286778560",
        "TLE_LINE0": "0 COSMOS 2527 (GLONASS)",
        "TLE_LINE1": "1 43508U 18053A   25123.41976615  .00000029  00000-0  00000+0 0  9999",
        "TLE_LINE2": "2 43508  65.3556  87.5981 0008811 246.9053 112.9794  2.13102187 53542"
    }
]